EUTELSAT QUANTUM        
1 49056U 21069B   25265.80215675  .00000121  00000+0  00000+0 0  9998
2 49056   0.0260  70.2894 0002326 130.8908 137.1938  1.00272029 15243
EUTELSAT KONNECT VHTS   
1 53765U 22110A   25265.22231074  .00000009  00000+0  00000+0 0  9990
2 53765   0.0555 103.5571 0002618  62.4926 278.0286  1.00270905  4136
EUTELSAT HOTBIRD 13F    
1 54048U 22134A   25265.86665058  .00000082  00000+0  00000+0 0  9995
2 54048   0.0595 287.5351 0002022  73.0168 326.4165  1.00272341 10697
EUTELSAT HOTBIRD 13G    
1 54225U 22146A   25265.79531006  .00000082  00000+0  00000+0 0  9992
2 54225   0.0486 232.6120 0002010 306.7236 121.8921  1.00271958  4780
EUTELSAT 10B            
1 54259U 22157A   25265.65196272  .00000062  00000+0  00000+0 0  9996
2 54259   0.0589 101.2650 0001574   1.5004 143.6718  1.00272022 10334
EUTELSAT 36D            
1 59346U 24059A   25265.85340216  .00000150  00000+0  00000+0 0  9990
2 59346   0.0025 171.3348 0000212 292.8860 240.8172  1.00271389  5463
